[
    {
        "CCSDS_OMM_VERS": "3.0",
        "COMMENT": "GENERATED VIA SPACE-TRACK.ORG API",
        "CREATION_DATE": "2025-05-03T17:28:03",
        "ORIGINATOR": "18 SPCS",
        "OBJECT_NAME": "BEIDOU 3M12",
        "OBJECT_ID": "2018-067B",
        "CENTER_NAME": "EARTH",
        "REF_FRAME": "TEME",
        "TIME_SYSTEM": "UTC",
        "MEAN_ELEMENT_THEORY": "SGP4",
        "EPOCH": "2025-05-02T19:21:17.780256",
        "MEAN_MOTION": "1.86227326",
        "ECCENTRICITY": "0.00039870",
        "INCLINATION": "54.1905",
        "RA_OF_ASC_NODE": "194.9215",
        "ARG_OF_PERICENTER": "14.8203",
        "MEAN_ANOMALY": "345.2552",
        "EPHEMERIS_TYPE": "0",
        "CLASSIFICATION_TYPE": "U",
        "NORAD_CAT_ID": "43603",
        "ELEMENT_SET_NO": "999",
        "REV_AT_EPOCH": "4550",
        "BSTAR": "0.00000000000000",
        "MEAN_MOTION_DOT": "-0.00000011",
        "MEAN_MOTION_DDOT": "0.0000000000000",
        "SEMIMAJOR_AXIS": "27906.556",
        "PERIOD": "773.248",
        "APOAPSIS": "21539.547",
        "PERIAPSIS": "21517.294",
        "OBJECT_TYPE": "PAYLOAD",
        "RCS_SIZE": "LARGE",
        "COUNTRY_CODE": "PRC",
        "LAUNCH_DATE": "2018-08-24",
        "SITE": "XSC",
        "DECAY_DATE": null,
        "FILE": "4717971",
        "GP_ID": "286762565",
        "TLE_LINE0": "0 BEIDOU 3M12",
        "TLE_LINE1": "1 43603U 18067B   25122.80645579 -.00000011  00000-0  00000-0 0  9997",
        "TLE_LINE2": "2 43603  54.1905 194.9215 0003987  14.8203 345.2552  1.86227326 45505"
    }
]